[{"OBJECT_NAME":"STARLINK-4382","OBJECT_ID":"2022-084F","EPOCH":"2026-03-09T18:01:38.527104","MEAN_MOTION":15.05644356,"ECCENTRICITY":0.00013533,"INCLINATION":97.6027,"RA_OF_ASC_NODE":131.2379,"ARG_OF_PERICENTER":89.7849,"MEAN_ANOMALY":270.3533,"EPHEMERIS_TYPE":0,"CLASSIFICATION_TYPE":"U","NORAD_CAT_ID":53194,"ELEMENT_SET_NO":999,"REV_AT_EPOCH":19938,"BSTAR":4.184132e-6,"MEAN_MOTION_DOT":0,"MEAN_MOTION_DDOT":0},{"OBJECT_NAME":"COSMOS 2251 DEB","OBJECT_ID":"1993-036BFE","EPOCH":"2026-03-07T11:17:48.105024","MEAN_MOTION":15.02528382,"ECCENTRICITY":0.00920663,"INCLINATION":74.0305,"RA_OF_ASC_NODE":348.6467,"ARG_OF_PERICENTER":45.7,"MEAN_ANOMALY":315.169,"EPHEMERIS_TYPE":0,"CLASSIFICATION_TYPE":"U","NORAD_CAT_ID":37084,"ELEMENT_SET_NO":999,"REV_AT_EPOCH":67539,"BSTAR":0.00092223433,"MEAN_MOTION_DOT":0.00013425,"MEAN_MOTION_DDOT":0}]
